IRIDIUM 126             
1 42809U 17039G   25290.21466862  .00000172  00000+0  54445-4 0  9991
2 42809  86.3917  95.2237 0002322  89.7294 270.4168 14.34218957435122
IRIDIUM 124             
1 42810U 17039H   25290.25579821  .00000619  00000+0  17792-3 0  9996
2 42810  86.4529  31.9068 0002149  89.0301 271.1146 14.43277032440075
IRIDIUM 128             
1 42811U 17039J   25290.27518090  .00000149  00000+0  46211-4 0  9997
2 42811  86.3942 126.7292 0001834  77.0100 283.1300 14.34215127435166
IRIDIUM 121             
1 42812U 17039K   25290.16392172  .00000013  00000+0 -24065-5 0  9992
2 42812  86.3916  95.2709 0001940  90.1945 269.9473 14.34217879434991
IRIDIUM 133             
1 42955U 17061A   25290.09757810  .00000154  00000+0  47962-4 0  9996
2 42955  86.3944 126.9153 0002060  85.6316 274.5115 14.34218406419939
IRIDIUM 100             
1 42956U 17061B   25290.09123587  .00000140  00000+0  42773-4 0  9995
2 42956  86.3942 126.8423 0002182  83.5520 276.5924 14.34218324419935
IRIDIUM 122             
1 42957U 17061C   25290.26882865  .00000130  00000+0  39205-4 0  9991
2 42957  86.3943 126.7676 0002153  84.6881 275.4561 14.34218287419962
IRIDIUM 129             
1 42958U 17061D   25290.29419611  .00000129  00000+0  39135-4 0  9990
2 42958  86.3944 126.8214 0002306  96.6145 263.5313 14.34217663419981
